{
    "CCSDS_OMM_VERS": "3.0",
    "COMMENT": "GENERATED VIA SPACE-TRACK.ORG API",
    "CREATION_DATE": "2025-11-24T07:26:19",
    "ORIGINATOR": "18 SPCS",
    "OBJECT_NAME": "BEIDOU 3M13",
    "OBJECT_ID": "2018-072A",
    "CENTER_NAME": "EARTH",
    "REF_FRAME": "TEME",
    "TIME_SYSTEM": "UTC",
    "MEAN_ELEMENT_THEORY": "SGP4",
    "EPOCH": "2025-11-23T08:16:47.820288",
    "MEAN_MOTION": "1.86230935",
    "ECCENTRICITY": "0.00052350",
    "INCLINATION": "56.4424",
    "RA_OF_ASC_NODE": "69.4628",
    "ARG_OF_PERICENTER": "299.1411",
    "MEAN_ANOMALY": "60.8090",
    "EPHEMERIS_TYPE": "0",
    "CLASSIFICATION_TYPE": "U",
    "NORAD_CAT_ID": "43622",
    "ELEMENT_SET_NO": "999",
    "REV_AT_EPOCH": "4882",
    "BSTAR": "0.00000000000000",
    "MEAN_MOTION_DOT": "-0.00000028",
    "MEAN_MOTION_DDOT": "0.0000000000000",
    "SEMIMAJOR_AXIS": "27906.195",
    "PERIOD": "773.234",
    "APOAPSIS": "21542.669",
    "PERIAPSIS": "21513.451",
    "OBJECT_TYPE": "PAYLOAD",
    "RCS_SIZE": "LARGE",
    "COUNTRY_CODE": "PRC",
    "LAUNCH_DATE": "2018-09-19",
    "SITE": "XSC",
    "DECAY_DATE": null,
    "FILE": "4896999",
    "GP_ID": "303367329",
    "TLE_LINE0": "0 BEIDOU 3M13",
    "TLE_LINE1": "1 43622U 18072A   25327.34499792 -.00000028  00000-0  00000+0 0  9991",
    "TLE_LINE2": "2 43622  56.4424  69.4628 0005235 299.1411  60.8090  1.86230935 48823"
}